[{"OBJECT_NAME":"NUSHSAT1","OBJECT_ID":"2025-052B","EPOCH":"2026-03-09T15:31:41.225952","MEAN_MOTION":15.31903202,"ECCENTRICITY":0.0005501,"INCLINATION":97.4095,"RA_OF_ASC_NODE":325.7239,"ARG_OF_PERICENTER":84.7512,"MEAN_ANOMALY":275.4357,"EPHEMERIS_TYPE":0,"CLASSIFICATION_TYPE":"U","NORAD_CAT_ID":63211,"ELEMENT_SET_NO":999,"REV_AT_EPOCH":5488,"BSTAR":0.00074857,"MEAN_MOTION_DOT":0.00023034,"MEAN_MOTION_DDOT":0},{"OBJECT_NAME":"STARLINK-33616","OBJECT_ID":"2025-063Y","EPOCH":"2026-03-09T23:28:02.383968","MEAN_MOTION":15.30206614,"ECCENTRICITY":0.0001654,"INCLINATION":53.1597,"RA_OF_ASC_NODE":61.7754,"ARG_OF_PERICENTER":64.9815,"MEAN_ANOMALY":295.1357,"EPHEMERIS_TYPE":0,"CLASSIFICATION_TYPE":"U","NORAD_CAT_ID":63385,"ELEMENT_SET_NO":999,"REV_AT_EPOCH":5460,"BSTAR":0.001035004,"MEAN_MOTION_DOT":0.00030427,"MEAN_MOTION_DDOT":0}]
